QIANFAN-65              
1 62795U 25016L   26001.57970971  .00000217  00000+0  31742-3 0  9996
2 62795  88.9764 101.0099 0012144 285.3557  74.6252 13.50979022 49928
QIANFAN-66              
1 62796U 25016M   26001.60853121  .00000221  00000+0  32376-3 0  9997
2 62796  88.9784 100.9810 0013263 280.2985  79.6671 13.50983972 49976
QIANFAN-67              
1 62797U 25016N   26001.61272014  .00000228  00000+0  33487-3 0  9996
2 62797  88.9774 101.0042 0013209 288.1362  71.8350 13.50988160 49940
QIANFAN-68              
1 62798U 25016P   26001.60438053  .00000225  00000+0  32963-3 0  9998
2 62798  88.9777 101.0509 0013269 286.1463  73.8227 13.50990557 49924
QIANFAN-69              
1 62799U 25016Q   26001.54676786  .00000222  00000+0  32596-3 0  9998
2 62799  88.9757 100.9220 0014012 287.6531  72.3090 13.50993229 49954
QIANFAN-70              
1 62800U 25016R   26001.56332992  .00000230  00000+0  33807-3 0  9996
2 62800  88.9777 101.0630 0013657 276.6739  83.2857 13.50984222 49919
QIANFAN-71              
1 62801U 25016S   26001.55913543  .00000227  00000+0  33386-3 0  9991
2 62801  88.9771 101.0417 0013930 291.5931  68.3736 13.50983674 49911
QIANFAN-72              
1 62802U 25016T   26001.57558596  .00000214  00000+0  31252-3 0  9993
2 62802  88.9762 101.0515 0017214 299.4458  60.4975 13.50983483 49906
